{
    "links": {
        "self": "http://www.neowsapp.com/rest/v1/neo/3655563?api_key=iIulBulltgU6a56xZRHN4H3l9WmuAYTsLGpBGhQ2"
    },
    "id": "3655563",
    "neo_reference_id": "3655563",
    "name": "(2013 YM48)",
    "designation": "2013 YM48",
    "nasa_jpl_url": "http://ssd.jpl.nasa.gov/sbdb.cgi?sstr=3655563",
    "absolute_magnitude_h": 25.7,
    "estimated_diameter": {
        "kilometers": {
            "estimated_diameter_min": 0.0192555078,
            "estimated_diameter_max": 0.0430566244
        },
        "meters": {
            "estimated_diameter_min": 19.2555078188,
            "estimated_diameter_max": 43.0566244241
        },
        "miles": {
            "estimated_diameter_min": 0.0119648141,
            "estimated_diameter_max": 0.0267541378
        },
        "feet": {
            "estimated_diameter_min": 63.1742402722,
            "estimated_diameter_max": 141.2618956756
        }
    },
    "is_potentially_hazardous_asteroid": false,
    "close_approach_data": [
        {
            "close_approach_date": "2014-01-06",
            "close_approach_date_full": "2014-Jan-06 14:15",
            "epoch_date_close_approach": 1389017700000,
            "relative_velocity": {
                "kilometers_per_second": "13.2597532939",
                "kilometers_per_hour": "47735.1118580886",
                "miles_per_hour": "29660.7421431551"
            },
            "miss_distance": {
                "astronomical": "0.0226407213",
                "lunar": "8.8072405857",
                "kilometers": "3387003.681743631",
                "miles": "2104586.4968628678"
            },
            "orbiting_body": "Earth"
        }
    ],
    "orbital_data": {
        "orbit_id": "7",
        "orbit_determination_date": "2017-04-06 08:43:06",
        "first_observation_date": "2013-12-30",
        "last_observation_date": "2014-01-05",
        "data_arc_in_days": 6,
        "observations_used": 46,
        "orbit_uncertainty": "8",
        "minimum_orbit_intersection": ".010534",
        "jupiter_tisserand_invariant": "3.581",
        "epoch_osculation": "2456658.5",
        "eccentricity": ".5745905811413706",
        "semi_major_axis": "2.028481056735346",
        "inclination": "6.374504166344595",
        "ascending_node_longitude": "282.9582366291466",
        "orbital_period": "1055.248786434013",
        "perihelion_distance": ".8629349475115221",
        "perihelion_argument": "234.254275615085",
        "aphelion_distance": "3.194027165959171",
        "perihelion_time": "2456699.866366883251",
        "mean_anomaly": "345.8877903775713",
        "mean_motion": ".3411517782612598",
        "equinox": "J2000",
        "orbit_class": {
            "orbit_class_type": "APO",
            "orbit_class_description": "Near-Earth asteroid orbits which cross the Earth’s orbit similar to that of 1862 Apollo",
            "orbit_class_range": "a (semi-major axis) > 1.0 AU; q (perihelion) < 1.017 AU"
        }
    },
    "is_sentry_object": false
}